[{"OBJECT_NAME":"STARLINK-30949","OBJECT_ID":"2023-180P","EPOCH":"2026-03-09T00:35:46.058496","MEAN_MOTION":15.27571086,"ECCENTRICITY":0.0001604,"INCLINATION":43.0054,"RA_OF_ASC_NODE":56.3333,"ARG_OF_PERICENTER":281.2638,"MEAN_ANOMALY":78.8034,"EPHEMERIS_TYPE":0,"CLASSIFICATION_TYPE":"U","NORAD_CAT_ID":58415,"ELEMENT_SET_NO":999,"REV_AT_EPOCH":12752,"BSTAR":-1.075297e-5,"MEAN_MOTION_DOT":-5.58e-6,"MEAN_MOTION_DDOT":0},{"OBJECT_NAME":"HERMES-2","OBJECT_ID":"2025-052AK","EPOCH":"2026-03-09T22:17:00.130272","MEAN_MOTION":15.28021069,"ECCENTRICITY":0.00063399,"INCLINATION":97.4004,"RA_OF_ASC_NODE":324.4926,"ARG_OF_PERICENTER":99.416,"MEAN_ANOMALY":260.7796,"EPHEMERIS_TYPE":0,"CLASSIFICATION_TYPE":"U","NORAD_CAT_ID":63243,"ELEMENT_SET_NO":999,"REV_AT_EPOCH":5485,"BSTAR":0.00034839454,"MEAN_MOTION_DOT":9.456e-5,"MEAN_MOTION_DDOT":0}]
